NORAD_CAT_ID,OBJECT_NAME,OBJECT_TYPE,EPOCH,MEAN_MOTION,ECCENTRICITY,INCLINATION,RA_OF_ASC_NODE,ARG_OF_PERICENTER,MEAN_ANOMALY,BSTAR,MEAN_MOTION_DOT,MEAN_MOTION_DDOT,TLE_LINE0,TLE_LINE1,TLE_LINE2,SEMIMAJOR_AXIS,PERIOD,APOGEE,PERIGEE,DECAYED
56497.0,STARLINK-5527,PAYLOAD,2023-10-31 22:00:01,15.50673361,0.0003591,69.9981,115.927,280.4828,113.7497,-0.01678,-0.00880259,0.0,0 STARLINK-5527,1 56497U 23064BB  23304.91668981 -.00880259  00000-0 -16780-1 0  9993,2 56497  69.9981 115.9270 0003591 280.4828 113.7497 15.50673361  6049,6792.896,92.863,417.2,412.322,0.0
56497.0,STARLINK-5527,PAYLOAD,2023-11-01 14:00:01,15.49406041,0.0003387,69.9988,114.1077,275.7201,237.4575,-0.018754,-0.00948068,0.0,0 STARLINK-5527,1 56497U 23064BB  23305.58335648 -.00948068  00000-0 -18754-1 0  9994,2 56497  69.9988 114.1077 0003387 275.7201 237.4575 15.49406041 27813,6796.599,92.939,420.766,416.162,0.0
56497.0,STARLINK-5527,PAYLOAD,2023-11-01 22:00:00,15.4871187,0.0003461,69.9985,113.1993,280.2438,291.1944,-0.017868,-0.00874868,0.0,0 STARLINK-5527,1 56497U 23064BB  23305.91667824 -.00874868  00000-0 -17868-1 0  9996,2 56497  69.9985 113.1993 0003461 280.2438 291.1944 15.48711870  5587,6798.63,92.98,422.848,418.142,0.0
56497.0,STARLINK-5527,PAYLOAD,2023-11-02 14:00:01,15.47454235,0.0003524,69.9989,111.385,274.7787,50.9084,-0.020286,-0.00956893,0.0,0 STARLINK-5527,1 56497U 23064BB  23306.58334491 -.00956893  00000-0 -20286-1 0  9998,2 56497  69.9989 111.3850 0003524 274.7787  50.9084 15.47454235  5683,6802.313,93.056,426.575,421.781,0.0
56497.0,STARLINK-5527,PAYLOAD,2023-11-02 22:00:01,15.46758429,0.0003586,69.9987,110.4792,282.0266,99.7032,-0.019214,-0.00890167,0.0,0 STARLINK-5527,1 56497U 23064BB  23306.91668981 -.00890167  00000-0 -19214-1 0  9999,2 56497  69.9987 110.4792 0003586 282.0266  99.7032 15.46758429 28026,6804.353,93.098,428.658,423.778,0.0
56497.0,STARLINK-5527,PAYLOAD,2023-11-03 14:00:01,15.45498574,0.0003391,69.9988,108.6705,276.7468,214.4757,-0.021866,-0.00963311,0.0,0 STARLINK-5527,1 56497U 23064BB  23307.58334491 -.00963311  00000-0 -21866-1 0  9997,2 56497  69.9988 108.6705 0003391 276.7468 214.4757 15.45498574 28120,6808.051,93.174,432.224,427.607,0.0
56497.0,STARLINK-5527,PAYLOAD,2023-11-03 22:00:00,15.44805926,0.0003271,69.9986,107.7675,279.471,265.3794,-0.020678,-0.00895221,0.0,0 STARLINK-5527,1 56497U 23064BB  23307.91667824 -.00895221  00000-0 -20678-1 0  9997,2 56497  69.9986 107.7675 0003271 279.4710 265.3794 15.44805926  5898,6810.085,93.216,434.178,429.723,0.0
56497.0,STARLINK-5527,PAYLOAD,2023-11-04 06:00:02,15.44129801,0.0003306,69.9988,106.8653,273.1013,324.6549,-0.0205,-0.00869381,0.0,0 STARLINK-5527,1 56497U 23064BB  23308.25002315 -.00869381  00000-0 -20500-1 0  9995,2 56497  69.9988 106.8653 0003306 273.1013 324.6549 15.44129801 28222,6812.073,93.256,436.19,431.686,0.0
56497.0,STARLINK-5527,PAYLOAD,2023-11-04 14:00:01,15.435374,0.0003517,69.9989,105.9643,273.2798,16.4393,-0.023177,-0.00955674,0.0,0 STARLINK-5527,1 56497U 23064BB  23308.58334491 -.00955674  00000-0 -23177-1 0  9998,2 56497  69.9989 105.9643 0003517 273.2798  16.4393 15.43537400  6009,6813.816,93.292,438.077,433.285,0.0
56497.0,STARLINK-5527,PAYLOAD,2023-11-04 22:00:00,15.42852144,0.0003631,69.9985,105.0637,279.4598,61.537,-0.022256,-0.00901284,0.0,0 STARLINK-5527,1 56497U 23064BB  23308.91667824 -.00901284  00000-0 -22256-1 0  9999,2 56497  69.9985 105.0637 0003631 279.4598  61.5370 15.42852144 28321,6815.833,93.334,440.173,435.224,0.0
56497.0,STARLINK-5527,PAYLOAD,2023-11-05 00:00:00,15.42714583,0.0003539,69.9983,104.8388,281.5019,162.1819,-0.023651,-0.00949063,0.0,0 STARLINK-5527,1 56497U 23064BB  23309.00001157 -.00949063  00000-0 -23651-1 0  9998,2 56497  69.9983 104.8388 0003539 281.5019 162.1819 15.42714583  6076,6816.239,93.342,440.516,435.691,0.0
56497.0,STARLINK-5527,PAYLOAD,2023-11-05 14:00:01,15.41581789,0.000355,69.9989,103.2656,277.7194,163.4538,-0.024886,-0.00960335,0.0,0 STARLINK-5527,1 56497U 23064BB  23309.58334491 -.00960335  00000-0 -24886-1 0  9997,2 56497  69.9989 103.2656 0003550 277.7194 163.4538 15.41581789 28432,6819.577,93.411,443.863,439.021,0.0
56497.0,STARLINK-5527,PAYLOAD,2023-11-05 22:00:00,15.40889976,0.0003495,69.9985,102.3676,282.3732,207.7336,-0.02355,-0.00893617,0.0,0 STARLINK-5527,1 56497U 23064BB  23309.91667824 -.00893617  00000-0 -23550-1 0  9998,2 56497  69.9985 102.3676 0003495 282.3732 207.7336 15.40889976  6092,6821.618,93.452,445.868,441.099,0.0
56497.0,STARLINK-5527,PAYLOAD,2023-11-06 06:00:00,15.402142,0.0003361,69.9983,101.4707,275.7303,262.5204,-0.023153,-0.00861614,0.0,0 STARLINK-5527,1 56497U 23064BB  23310.25001157 -.00861614  00000-0 -23153-1 0  9999,2 56497  69.9983 101.4707 0003361 275.7303 262.5204 15.40214200 28535,6823.614,93.493,447.772,443.185,0.0
56497.0,STARLINK-5527,PAYLOAD,2023-11-06 14:00:01,15.39616465,0.0003391,69.9986,100.5745,276.51,309.1434,-0.026172,-0.00947239,0.0,0 STARLINK-5527,1 56497U 23064BB  23310.58335648 -.00947239  00000-0 -26172-1 0  9992,2 56497  69.9986 100.5745 0003391 276.5100 309.1434 15.39616465  5936,6825.38,93.53,449.559,444.93,0.0
56497.0,STARLINK-5527,PAYLOAD,2023-11-06 22:00:00,15.38942047,0.0003484,69.9982,99.6793,280.3708,351.799,-0.025529,-0.00907134,0.0,0 STARLINK-5527,1 56497U 23064BB  23310.91667824 -.00907134  00000-0 -25529-1 0  9998,2 56497  69.9982  99.6793 0003484 280.3708 351.7990 15.38942047 28632,6827.374,93.571,451.617,446.86,0.0
56497.0,STARLINK-5527,PAYLOAD,2023-11-07 14:00:01,15.37659126,0.0003471,69.9983,97.8918,275.0061,88.0197,-0.027891,-0.00946763,0.0,0 STARLINK-5527,1 56497U 23064BB  23311.58335648 -.00946763  00000-0 -27891-1 0  9993,2 56497  69.9983  97.8918 0003471 275.0061  88.0197 15.37659126 28744,6831.171,93.649,455.407,450.664,0.0
56497.0,STARLINK-5527,PAYLOAD,2023-11-08 14:00:01,15.35697318,0.0003284,69.9982,95.2172,276.1825,217.1143,-0.029519,-0.00940847,0.0,0 STARLINK-5527,1 56497U 23064BB  23312.58334491 -.00940847  00000-0 -29519-1 0  9995,2 56497  69.9982  95.2172 0003284 276.1825 217.1143 15.35697318 28894,6836.987,93.768,461.097,456.607,0.0
56497.0,STARLINK-5527,PAYLOAD,2023-11-08 22:00:00,15.35036688,0.0003268,69.9978,94.3273,280.3388,254.8387,-0.029508,-0.00922388,0.0,0 STARLINK-5527,1 56497U 23064BB  23312.91667824 -.00922388  00000-0 -29508-1 0  9999,2 56497  69.9978  94.3273 0003268 280.3388 254.8387 15.35036688  6031,6838.949,93.809,463.048,458.579,0.0
56497.0,STARLINK-5527,PAYLOAD,2023-11-09 14:00:01,15.33738689,0.0003341,69.9984,92.5504,274.639,341.9505,-0.031277,-0.00936766,0.0,0 STARLINK-5527,1 56497U 23064BB  23313.58334491 -.00936766  00000-0 -31277-1 0  9995,2 56497  69.9984  92.5504 0003341 274.6390 341.9505 15.33738689 29040,6842.807,93.888,466.958,462.385,0.0
56497.0,STARLINK-5527,PAYLOAD,2023-11-09 22:00:00,15.33077429,0.0003451,69.998,91.6631,278.9264,17.1974,-0.031348,-0.00920855,0.0,0 STARLINK-5527,1 56497U 23064BB  23313.91667824 -.00920855  00000-0 -31348-1 0  9992,2 56497  69.9980  91.6631 0003451 278.9264  17.1974 15.33077429  5972,6844.774,93.929,469.001,464.277,0.0
56497.0,STARLINK-5527,PAYLOAD,2023-11-10 14:00:01,15.31783588,0.0003452,69.9986,89.8916,276.8243,96.016,-0.033393,-0.00940017,0.0,0 STARLINK-5527,1 56497U 23064BB  23314.58334491 -.00940017  00000-0 -33393-1 0  9991,2 56497  69.9986  89.8916 0003452 276.8243  96.0160 15.31783588  6037,6848.628,94.008,472.857,468.129,0.0
56497.0,STARLINK-5527,PAYLOAD,2023-11-10 22:00:00,15.31120066,0.0003488,69.9983,89.0071,281.812,128.2157,-0.033256,-0.00918804,0.0,0 STARLINK-5527,1 56497U 23064BB  23314.91667824 -.00918804  00000-0 -33256-1 0  9994,2 56497  69.9983  89.0071 0003488 281.8120 128.2157 15.31120066 29256,6850.606,94.049,474.861,470.082,0.0
56497.0,STARLINK-5527,PAYLOAD,2023-11-11 14:00:01,15.29823271,0.0003368,69.9989,87.2409,278.1624,203.8901,-0.035338,-0.00936115,0.0,0 STARLINK-5527,1 56497U 23064BB  23315.58334491 -.00936115  00000-0 -35338-1 0  9997,2 56497  69.9989  87.2409 0003368 278.1624 203.8901 15.29823271  6046,6854.477,94.129,478.651,474.034,0.0
56497.0,STARLINK-5527,PAYLOAD,2023-11-11 22:00:01,15.29057899,0.0003405,69.9987,86.359,280.3864,236.5879,-0.023865,-0.00629193,0.0,0 STARLINK-5527,1 56497U 23064BB  23315.91668981 -.00629193  00000-0 -23865-1 0  9995,2 56497  69.9987  86.3590 0003405 280.3864 236.5879 15.29057899 29405,6856.764,94.176,480.964,476.295,0.0
56497.0,STARLINK-5527,PAYLOAD,2023-11-12 06:00:00,15.28544183,0.0003413,69.999,85.4783,273.8379,277.1297,0.002726,0.00076572,0.0,0 STARLINK-5527,1 56497U 23064BB  23316.25001157  .00076572  00000-0  27260-2 0  9998,2 56497  69.9990  85.4783 0003413 273.8379 277.1297 15.28544183 29456,6858.301,94.207,482.506,477.825,0.0
56497.0,STARLINK-5527,PAYLOAD,2023-11-12 14:00:01,15.28589763,0.0003494,69.9996,84.5973,277.5535,307.1626,-0.00036196,-0.00010207,0.0,0 STARLINK-5527,1 56497U 23064BB  23316.58334491 -.00010207  00000-0 -36196-3 0  9998,2 56497  69.9996  84.5973 0003494 277.5535 307.1626 15.28589763 29506,6858.164,94.204,482.425,477.633,0.0
56497.0,STARLINK-5527,PAYLOAD,2023-11-12 22:00:00,15.28613249,0.0003461,69.9997,83.717,280.2554,338.2248,-0.00096829,-0.00027052,0.0,0 STARLINK-5527,1 56497U 23064BB  23316.91667824 -.00027052  00000-0 -96829-3 0  9999,2 56497  69.9997  83.7170 0003461 280.2554 338.2248 15.28613249  5992,6858.094,94.203,482.333,477.585,0.0
56497.0,STARLINK-5527,PAYLOAD,2023-11-13 06:00:00,15.28568382,0.0003406,70.0003,82.8365,274.5483,17.7258,0.0028149,0.00079159,0.0,0 STARLINK-5527,1 56497U 23064BB  23317.25001157  .00079159  00000-0  28149-2 0  9990,2 56497  70.0003  82.8365 0003406 274.5483  17.7258 15.28568382 29606,6858.228,94.206,482.429,477.757,0.0
56497.0,STARLINK-5527,PAYLOAD,2023-11-13 14:00:01,15.28615354,0.0003448,70.0005,81.956,278.6086,47.4466,-0.00021973,-6.254e-05,0.0,0 STARLINK-5527,1 56497U 23064BB  23317.58334491 -.00006254  00000-0 -21973-3 0  9993,2 56497  70.0005  81.9560 0003448 278.6086  47.4466 15.28615354  6030,6858.088,94.203,482.317,477.588,0.0
